NORAD_CAT_ID,OBJECT_NAME,OBJECT_TYPE,EPOCH,MEAN_MOTION,ECCENTRICITY,INCLINATION,RA_OF_ASC_NODE,ARG_OF_PERICENTER,MEAN_ANOMALY,BSTAR,MEAN_MOTION_DOT,MEAN_MOTION_DDOT,TLE_LINE0,TLE_LINE1,TLE_LINE2,SEMIMAJOR_AXIS,PERIOD,APOGEE,PERIGEE,DECAYED
52858.0,STARLINK-4198,PAYLOAD,2023-01-16 17:58:30,15.08852418,0.0001435,53.2174,137.4237,80.9877,279.1278,9.1838e-05,1.174e-05,0.0,0 STARLINK-4198,1 52858U 22062AE  23016.74896845  .00001174  00000-0  91838-4 0  9999,2 52858  53.2174 137.4237 0001435  80.9877 279.1278 15.08852418 33117,6917.842,95.437,540.7,538.715,0.0
52858.0,STARLINK-4198,PAYLOAD,2023-01-17 06:41:38,15.08812848,0.0001149999999999,53.2177,135.0449,99.7061,260.4061,-5.4009e-05,-1.147e-05,0.0,0 STARLINK-4198,1 52858U 22062AE  23017.27892069 -.00001147  00000-0 -54009-4 0  9993,2 52858  53.2177 135.0449 0001150  99.7061 260.4061 15.08812848 33190,6917.963000000001,95.439,540.624,539.033,0.0
52858.0,STARLINK-4198,PAYLOAD,2023-01-17 14:38:34,15.08820539,0.0001403,53.2167,133.5601,91.5479,268.5674,6.366600000000001e-05,7.25e-06,0.0,0 STARLINK-4198,1 52858U 22062AE  23017.61011706  .00000725  00000-0  63666-4 0  9990,2 52858  53.2167 133.5601 0001403  91.5479 268.5674 15.08820539 33247,6917.94,95.439,540.775,538.8340000000001,0.0
52858.0,STARLINK-4198,PAYLOAD,2023-01-18 08:07:47,15.08839812,0.0001603,53.2193,130.2891,105.6979,254.419,8.8171e-05,1.115e-05,0.0,0 STARLINK-4198,1 52858U 22062AE  23018.33874784  .00001115  00000-0  88171-4 0  9995,2 52858  53.2193 130.2891 0001603 105.6979 254.4190 15.08839812 33358,6917.880999999999,95.438,540.855,538.637,0.0
52858.0,STARLINK-4198,PAYLOAD,2023-01-18 14:29:19,15.08857893,7.190000000000001e-05,53.218,129.0981,78.4672,281.6401,0.00019497,2.818e-05,0.0,0 STARLINK-4198,1 52858U 22062AE  23018.60369346  .00002818  00000-0  19497-3 0  9993,2 52858  53.2180 129.0981 0000719  78.4672 281.6401 15.08857893 32900,6917.826,95.436,540.188,539.193,0.0
52858.0,STARLINK-4198,PAYLOAD,2023-01-19 09:33:58,15.08833901,0.0001385999999999,53.2165,125.529,93.499,266.6161,0.00013542,1.868e-05,0.0,0 STARLINK-4198,1 52858U 22062AE  23019.39859472  .00001868  00000-0  13542-3 0  9993,2 52858  53.2165 125.5290 0001386  93.4990 266.6161 15.08833901 33516,6917.899,95.438,540.7230000000001,538.805,0.0
52858.0,STARLINK-4198,PAYLOAD,2023-01-19 17:30:53,15.08850176,0.0001891,53.2161,124.0391,136.1568,223.9574,0.00020862,3.035e-05,0.0,0 STARLINK-4198,1 52858U 22062AE  23019.72978043  .00003035  00000-0  20862-3 0  9997,2 52858  53.2161 124.0391 0001891 136.1568 223.9574 15.08850176 33567,6917.849,95.437,541.0219999999999,538.406,0.0
52858.0,STARLINK-4198,PAYLOAD,2023-01-20 11:00:07,15.08849573,0.0002907,53.2165,120.7655,141.1769,218.9433,-0.00016371,-2.894e-05,0.0,0 STARLINK-4198,1 52858U 22062AE  23020.45841550 -.00002894  00000-0 -16371-3 0  9995,2 52858  53.2165 120.7655 0002907 141.1769 218.9433 15.08849573 33180,6917.851,95.437,541.727,537.705,0.0
52858.0,STARLINK-4198,PAYLOAD,2023-01-21 06:04:45,15.08840377,0.0001145,53.2163,117.2072,96.7962,263.316,2.6985e-05,1.42e-06,0.0,0 STARLINK-4198,1 52858U 22062AE  23021.25331010  .00000142  00000-0  26985-4 0  9994,2 52858  53.2163 117.2072 0001145  96.7962 263.3160 15.08840377 33796,6917.879,95.438,540.536,538.952,0.0
52858.0,STARLINK-4198,PAYLOAD,2023-01-21 15:37:03,15.08854394,0.0001587,53.2179,115.4142,140.7508,219.3599,9.1789e-05,1.174e-05,0.0,0 STARLINK-4198,1 52858U 22062AE  23021.65073593  .00001174  00000-0  91789-4 0  9997,2 52858  53.2179 115.4142 0001587 140.7508 219.3599 15.08854394 33855,6917.835999999999,95.437,540.799,538.604,0.0
52858.0,STARLINK-4198,PAYLOAD,2023-01-22 05:55:33,15.08834896,0.0001277,53.2187,112.7432,87.0746,273.0392,5.2376e-05,5.46e-06,0.0,0 STARLINK-4198,1 52858U 22062AE  23022.24691362  .00000546  00000-0  52376-4 0  9994,2 52858  53.2187 112.7432 0001277  87.0746 273.0392 15.08834896 33942,6917.896,95.438,540.644,538.878,0.0
52858.0,STARLINK-4198,PAYLOAD,2023-01-22 12:17:04,15.08853225,0.000105,53.2168,111.5531,121.5299,238.5796,5.414e-05,5.74e-06,0.0,0 STARLINK-4198,1 52858U 22062AE  23022.51186035  .00000574  00000-0  54140-4 0  9992,2 52858  53.2168 111.5531 0001050 121.5299 238.5796 15.08853225 33989,6917.84,95.437,540.431,538.979,0.0
52858.0,STARLINK-4198,PAYLOAD,2023-01-23 05:46:20,15.08832924,9.22e-05,53.2162,108.2817,105.3741,254.7353,0.00018995,2.736e-05,0.0,0 STARLINK-4198,1 52858U 22062AE  23023.24051497  .00002736  00000-0  18995-3 0  9995,2 52858  53.2162 108.2817 0000922 105.3741 254.7353 15.08832924 34097,6917.901999999999,95.438,540.405,539.129,0.0
52858.0,STARLINK-4198,PAYLOAD,2023-01-24 13:34:02,15.0885226,0.0001136,53.2173,102.3394,67.0829,293.0283,0.0002865,4.276e-05,0.0,0 STARLINK-4198,1 52858U 22062AE  23024.56530834  .00004276  00000-0  28650-3 0  9998,2 52858  53.2173 102.3394 0001136  67.0829 293.0283 15.08852260 34298,6917.843000000001,95.437,540.494,538.922,0.0
52858.0,STARLINK-4198,PAYLOAD,2023-01-25 05:27:54,15.08832836,9.03e-05,53.2163,99.3627,81.3912,278.7183,-7.094e-05,-1.416e-05,0.0,0 STARLINK-4198,1 52858U 22062AE  23025.22771671 -.00001416  00000-0 -70940-4 0  9993,2 52858  53.2163  99.3627 0000903  81.3912 278.7183 15.08832836 34391,6917.901999999999,95.438,540.3919999999999,539.143,0.0
52858.0,STARLINK-4198,PAYLOAD,2023-01-25 13:24:50,15.088405599999998,0.0001155,53.2173,97.8765,94.8162,265.2962,0.00011056,1.472e-05,0.0,0 STARLINK-4198,1 52858U 22062AE  23025.55891595  .00001472  00000-0  11056-3 0  9999,2 52858  53.2173  97.8765 0001155  94.8162 265.2962 15.08840560 33954,6917.879,95.438,540.543,538.945,0.0
52858.0,STARLINK-4198,PAYLOAD,2023-01-26 10:04:50,15.08848689,0.0001208,53.2163,94.0108,96.2697,263.8433,0.00012114,1.641e-05,0.0,0 STARLINK-4198,1 52858U 22062AE  23026.42003191  .00001641  00000-0  12114-3 0  9997,2 52858  53.2163  94.0108 0001208  96.2697 263.8433 15.08848689 34083,6917.854,95.437,540.555,538.883,0.0
52858.0,STARLINK-4198,PAYLOAD,2023-01-26 22:47:55,15.08850511,0.0001291999999999,53.2173,91.6337,95.8563,264.2576,0.00032342,4.865e-05,0.0,0 STARLINK-4198,1 52858U 22062AE  23026.94995050  .00004865  00000-0  32342-3 0  9994,2 52858  53.2173  91.6337 0001292  95.8563 264.2576 15.08850511 34654,6917.848000000001,95.437,540.607,538.819,0.0
52858.0,STARLINK-4198,PAYLOAD,2023-01-27 03:34:05,15.08838746,0.0001100999999999,53.2159,90.7385,95.2588,264.853,1.0745999999999998e-05,-1.17e-06,0.0,0 STARLINK-4198,1 52858U 22062AE  23027.14867308 -.00000117  00000-0  10746-4 0  9993,2 52858  53.2159  90.7385 0001101  95.2588 264.8530 15.08838746 34686,6917.884,95.438,540.511,538.988,0.0
52858.0,STARLINK-4198,PAYLOAD,2023-01-27 11:31:00,15.088474800000002,0.0001123,53.2161,89.25200000000001,91.3785,268.7335,0.00016932,2.408e-05,0.0,0 STARLINK-4198,1 52858U 22062AE  23027.47986935  .00002408  00000-0  16932-3 0  9993,2 52858  53.2161  89.2520 0001123  91.3785 268.7335 15.08847480 34246,6917.858,95.437,540.499,538.946,0.0
52858.0,STARLINK-4198,PAYLOAD,2023-01-28 03:24:52,15.08838989,0.0001315,53.2154,86.2813,78.3225,281.7915,-6.0618e-05,-1.252e-05,0.0,0 STARLINK-4198,1 52858U 22062AE  23028.14227389 -.00001252  00000-0 -60618-4 0  9998,2 52858  53.2154  86.2813 0001315  78.3225 281.7915 15.08838989 34835,6917.883000000001,95.438,540.658,538.839,0.0
52858.0,STARLINK-4198,PAYLOAD,2023-01-28 12:57:11,15.088402,0.000127,53.2164,84.4944,88.404,271.7098,-6.7379e-06,-3.95e-06,0.0,0 STARLINK-4198,1 52858U 22062AE  23028.53971430 -.00000395  00000-0 -67379-5 0  9993,2 52858  53.2164  84.4944 0001270  88.4040 271.7098 15.08840200 34401,6917.88,95.438,540.623,538.866,0.0
52858.0,STARLINK-4198,PAYLOAD,2023-01-28 20:54:07,15.08838908,0.0001438,53.2169,83.0089,82.4349,277.6807,-3.0263e-05,-7.7e-06,0.0,0 STARLINK-4198,1 52858U 22062AE  23028.87091646 -.00000770  00000-0 -30263-4 0  9990,2 52858  53.2169  83.0089 0001438  82.4349 277.6807 15.08838908 34453,6917.884,95.438,540.744,538.754,0.0
52858.0,STARLINK-4198,PAYLOAD,2023-01-29 12:47:58,15.08839853,0.0001303,53.2162,80.0334,89.724,270.3901,0.00012002,1.623e-05,0.0,0 STARLINK-4198,1 52858U 22062AE  23029.53331789  .00001623  00000-0  12002-3 0  9995,2 52858  53.2162  80.0334 0001303  89.7240 270.3901 15.08839853 35048,6917.881,95.438,540.647,538.844,0.0
52858.0,STARLINK-4198,PAYLOAD,2023-01-29 20:44:54,15.08838498,0.0001318,53.2163,78.5467,85.9698,274.1445,0.00016057,2.268e-05,0.0,0 STARLINK-4198,1 52858U 22062AE  23029.86451948  .00002268  00000-0  16057-3 0  9991,2 52858  53.2163  78.5467 0001318  85.9698 274.1445 15.08838498 34609,6917.885,95.438,540.662,538.838,0.0
52858.0,STARLINK-4198,PAYLOAD,2023-01-30 12:38:45,15.08847764,0.0001319,53.2161,75.5728,88.451,271.6633,0.00024013,3.537e-05,0.0,0 STARLINK-4198,1 52858U 22062AE  23030.52691524  .00003537  00000-0  24013-3 0  9993,2 52858  53.2161  75.5728 0001319  88.4510 271.6633 15.08847764 34704,6917.857,95.437,540.634,538.809,0.0
52858.0,STARLINK-4198,PAYLOAD,2023-01-31 04:32:37,15.08834921,0.0001377,53.2169,72.5984,90.8836,269.2314,0.0001109,1.477e-05,0.0,0 STARLINK-4198,1 52858U 22062AE  23031.18932280  .00001477  00000-0  11090-3 0  9995,2 52858  53.2169  72.5984 0001377  90.8836 269.2314 15.08834921 35290,6917.896,95.438,540.714,538.808,0.0
52858.0,STARLINK-4198,PAYLOAD,2023-01-31 10:54:09,15.08840133,0.0001375,53.2172,71.4092,89.2379,270.8771,5.6158e-05,6.06e-06,0.0,0 STARLINK-4198,1 52858U 22062AE  23031.45428015  .00000606  00000-0  56158-4 0  9999,2 52858  53.2172  71.4092 0001375  89.2379 270.8771 15.08840133 34841,6917.88,95.438,540.696,538.794,0.0
52858.0,STARLINK-4198,PAYLOAD,2023-02-01 05:58:47,15.08842218,0.000137,53.2174,67.8405,88.6046,271.5103,9.4533e-05,1.217e-05,0.0,0 STARLINK-4198,1 52858U 22062AE  23032.24915746  .00001217  00000-0  94533-4 0  9997,2 52858  53.2174  67.8405 0001370  88.6046 271.5103 15.08842218 35450,6917.874,95.437,540.686,538.791,0.0
